GLOBALSTAR M023 [+]     
1 25621U 99004A   23351.89889868 -.00000232  00000+0 -71167-3 0  9999
2 25621  52.0119 279.8594 0010362 359.3043 109.7097 12.62443949146603
GLOBALSTAR M040 [-]     
1 25622U 99004B   23351.02349524 -.00000063  00000+0  22742-3 0  9991
2 25622  51.9927 285.8791 0000475 350.9274  91.5808 12.61962473146045
GLOBALSTAR M036 [-]     
1 25623U 99004C   23352.00836569 -.00000169  00000+0 -12551-2 0  9995
2 25623  51.9956 242.5085 0012363  83.5037  18.2083 11.86557491114007
GLOBALSTAR M038 [-]     
1 25624U 99004D   23351.94393936 -.00000082  00000+0  10693-3 0  9993
2 25624  51.9949 207.5161 0002204  27.9238  79.4299 12.32489675134857
GLOBALSTAR M022 [-]     
1 25649U 99012A   23351.56502928 -.00000027  00000+0  72015-3 0  9995
2 25649  52.0061 339.5550 0002589 162.0617 355.2648 12.02474213110493
GLOBALSTAR M041 [-]     
1 25650U 99012B   23351.77621969 -.00000082  00000+0  47924-4 0  9990
2 25650  51.9996 203.7438 0001775 352.0695   8.0113 11.96650838112741
GLOBALSTAR M037 [+]     
1 25652U 99012D   23352.00213287 -.00000080  00000+0  13009-3 0  9993
2 25652  52.0022  50.3729 0002048  69.5978 352.2531 12.62391110142214
